#aV2011  2  1  0  0   .00000000      96 DD+AD WGS84 FIT  NGA
## 1621 172800.00000000   900.00000000 55593  .0000000000000
+   32     1  2  3  4  5  6  7  8  9 10 11 12 13 14 15 16 17
+         18 19 20 21 22 23 24 25 26 27 28 29 30 31 32  0  0
+          0  0  0  0  0  0  0  0  0  0  0  0  0  0  0  0  0
+          0  0  0  0  0  0  0  0  0  0  0  0  0  0  0  0  0
+          0  0  0  0  0  0  0  0  0  0  0  0  0  0  0  0  0
++         0  0  0  0  0  0  0  0  0  0  0  0  0  0  0  0  0
++         0  0  0  0  0  0  0  0  0  0  0  0  0  0  0  0  0
++         0  0  0  0  0  0  0  0  0  0  0  0  0  0  0  0  0
++         0  0  0  0  0  0  0  0  0  0  0  0  0  0  0  0  0
++         0  0  0  0  0  0  0  0  0  0  0  0  0  0  0  0  0
%c cc cc ccc ccc cccc cccc cccc cccc ccccc ccccc ccccc ccccc
%c cc cc ccc ccc cccc cccc cccc cccc ccccc ccccc ccccc ccccc
%f  0.0000000  0.000000000  0.00000000000  0.000000000000000
%f  0.0000000  0.000000000  0.00000000000  0.000000000000000
%i    0    0    0    0      0      0      0      0         0
%i    0    0    0    0      0      0      0      0         0
/*      NGA, ST. LOUIS,MO.                                  
/*   EPHEMERIS COMPUTED FROM  3 DAYS OF DATA                
/* CCCCCCCCCCCCCCCCCCCCCCCCCCCCCCCCCCCCCCCCCCCCCCCCCCCCCCCCC
/* CCCCCCCCCCCCCCCCCCCCCCCCCCCCCCCCCCCCCCCCCCCCCCCCCCCCCCCCC
*  2011  2  1  2 30   .00000000                                                 
P  1   6934.641731 -22240.785244  12516.045294   -204.768682                    
V  1   3491.225149  15890.206065  26200.020093      -.030898                    
P  2   1914.758443  17213.560328  20266.009083    317.888876                    
V  2 -23695.667713  -9894.449557  10172.433929       .021138                    
P  3   3077.347533 -20063.499913 -17370.321626    670.116856                    
V  3  17650.732642 -12509.585664  18323.245063       .049615                    
P  4 -11241.212368  11609.561621  20916.131292     23.646807                    
V  4 -24158.224914 -12234.640568  -5781.789514       .100788                    
P  5   1808.111175  26437.750051    346.235548   -107.721117                    
V  5  -3119.764691   -223.652042  31694.468457      -.059427                    
P  6   8689.981818 -20176.785638 -14624.985374    -49.694511                    
V  6  16803.452893  -9295.248664  22757.199234      -.257812                    
P  7 -24273.460194  -4144.307895 -10206.611480      2.788917                    
V  7 -10701.236292  -7447.133522  28259.971657       .006676                    
P  8 -18841.326604   3050.836145 -18686.133251      7.314540                    
V  8 -19965.224992 -12394.494086  17560.577150       .000519                    
P  9  19990.141309  15458.155845  -8736.741156     59.001146                    
V  9 -10148.238044  -2584.972170 -29635.521005       .024467                    
P 10  -8694.980908  20698.654357  13684.839161    -64.960976                    
V 10  -3701.051979 -17729.726329  24466.683053      -.010780                    
P 11 -22096.658956 -12127.208653  -9209.508598   -123.697718                    
V 11  11931.419947  -1864.421951 -26741.926863      -.029052                    
P 12  10753.747781  19959.058265  14005.900609    -30.827818                    
V 12   -659.726417  17709.183378 -24627.406631       .033139                    
P 13 -22800.964104   3179.080536  13148.915381    283.994275                    
V 13  13867.460888  -9698.355057  26073.324786      -.012937                    
P 14  21412.931492 -15327.628506   3012.797062    128.077736                    
V 14   4225.455339    -46.495490 -32053.812750       .028252                    
P 15  11160.816205  10873.678885 -21503.930805   -155.710214                    
V 15 -22167.292521  16044.244473  -3233.385489       .036268                    
P 16   1401.811467 -26107.084534   3723.725526   -147.161841                    
V 16   2780.313851   4604.069519  31787.485681      -.029854                    
P 17 -21706.314666  15042.936518   1311.417029    182.525216                    
V 17  -2904.139522  -1689.702173 -31858.147093       .005865                    
P 18  15416.792642  -3232.105298 -21063.865652    119.063572                    
V 18   2090.940821  27503.640122  -3021.078964       .020735                    
P 19  -6332.168762 -13918.075324 -21699.931902   -106.882868                    
V 19  24131.078602 -13371.332350   1862.639461      -.036290                    
P 20 -14025.550142 -15172.603943  16580.390658     48.701479                    
V 20    -84.207083 -21509.041721 -19511.837058      -.000596                    
P 21  24431.504403   3627.621288 -10164.603311   -120.744300                    
V 21  10649.633569   8490.841407  26979.963305      -.027417                    
P 22  12005.347472 -15995.702367 -17266.931283    154.115596                    
V 22   3445.899567  22227.404922 -18117.014482      -.007098                    
P 23 -16275.024789  -5941.245181  20220.167662    328.766683                    
V 23  20798.574691 -14903.097927  12032.062829      -.023412                    
P 24 -21150.981231 -15547.743873  -4839.703649    361.478656                    
V 24   6826.385808    408.461620 -30504.833170       .034675                    
P 25  15247.881732   4846.868771  21188.669784    -66.334795                    
V 25   1759.919982  26877.810705  -7404.966443      -.017071                    
P 26  -2845.954650  17221.555403 -20462.636408   -110.045984                    
V 26 -21860.488068  11673.608596  13653.181493      -.094240                    
P 27  16594.642065  16161.936619 -12567.774151    232.441291                    
V 27 -16288.413789  -4923.850322 -26165.205949       .035539                    
P 28 -12692.975828  12219.459054 -19276.365999     17.572387                    
V 28  -2279.123619 -25577.905549 -14602.999800       .021133                    
P 29  21721.392082  -1091.133835  15298.623169    182.109639                    
V 29 -15256.503872  11984.962804  22670.740550       .026567                    
P 30   3986.625889 -24212.935058   9712.008342    318.243479                    
V 30   4201.821062  12527.020251  28355.818941       .030389                    
P 31   8569.331848 -12362.384840  22113.612219     36.274399                    
V 31  24656.060992  12178.134544  -2576.173200       .043947                    
P 32  -8059.208348 -22771.283590  11784.736907   -187.028115                    
V 32   2295.482199 -14349.935408 -26440.975532      -.079126                    
EOF
